OBJECT_NAME,OBJECT_ID,EPOCH,MEAN_MOTION,ECCENTRICITY,INCLINATION,RA_OF_ASC_NODE,ARG_OF_PERICENTER,MEAN_ANOMALY,EPHEMERIS_TYPE,CLASSIFICATION_TYPE,NORAD_CAT_ID,ELEMENT_SET_NO,REV_AT_EPOCH,BSTAR,MEAN_MOTION_DOT,MEAN_MOTION_DDOT
STARLINK-31938,2024-098H,2026-07-22T09:55:06.346560,15.27578655,.00012109,43.0023,236.8650,280.8956,79.1759,0,U,59865,999,12245,.36874195E-4,.753E-5,0
STARLINK-31941,2024-098J,2026-07-22T10:17:00.348864,15.27585776,.00015882,43.0027,219.3167,283.4121,76.6554,0,U,59866,999,12265,.49222867E-4,.1093E-4,0
STARLINK-31952,2024-098K,2026-07-21T11:09:01.044288,15.27584244,.00013455,43.0002,242.6482,278.1732,81.8967,0,U,59867,999,12230,.38425822E-4,.796E-5,0
STARLINK-31921,2024-098L,2026-07-21T16:20:42.909216,15.27582852,.00007857,43.0005,200.9285,193.8243,166.2587,0,U,59868,999,12279,-.2979597E-4,-.1082E-4,0
STARLINK-31760,2024-098M,2026-07-22T12:30:19.505376,15.27579954,.00012286,43.0001,236.8154,279.7698,80.3015,0,U,59869,999,12246,.30229136E-4,.57E-5,0
STARLINK-31945,2024-098N,2026-07-22T10:54:48.189024,15.27577720,.00011706,43.0010,232.8511,275.8392,84.2326,0,U,59870,999,12250,.15971559E-4,.177E-5,0
STARLINK-31937,2024-098P,2026-07-22T11:56:35.841120,15.27552187,.0001407,43.0000,229.7187,266.0498,94.0192,0,U,59871,999,12254,-.1161133E-3,-.3453E-4,0
STARLINK-31940,2024-098R,2026-07-22T10:44:23.894592,15.27578558,.00015737,43.0028,229.3386,284.4657,75.6021,0,U,59873,999,12254,.31923427E-4,.616E-5,0
STARLINK-31933,2024-098S,2026-07-22T10:19:09.698304,15.27579335,.00016404,43.0002,236.9957,273.2832,86.7832,0,U,59874,999,12245,.373575E-4,.766E-5,0
STARLINK-31936,2024-098T,2026-07-22T10:19:36.928128,15.27590483,.00012803,43.0003,204.7198,270.9899,89.0806,0,U,59875,999,12281,.29021071E-4,.537E-5,0
STARLINK-31935,2024-098U,2026-07-22T10:50:37.125312,15.27578993,.00012591,42.9997,237.1550,276.1896,83.8812,0,U,59876,999,12245,.27610793E-4,.498E-5,0
STARLINK-31934,2024-098V,2026-07-22T11:31:48.381312,15.27581863,.00017868,43.0025,233.0512,279.6592,80.4058,0,U,59877,999,12250,.36142144E-4,.732E-5,0
STARLINK-31943,2024-098W,2026-07-22T09:38:42.089856,15.51510601,.0019739,42.9943,227.2002,76.4572,283.8486,0,U,59878,999,12191,.17798875E-2,.109969E-2,0
STARLINK-31926,2024-098X,2026-07-22T10:58:11.292096,15.27579261,.00015326,43.0024,226.3959,272.5177,87.5499,0,U,59879,999,12257,.21101563E-3,.5549E-4,0
STARLINK-31919,2024-098Y,2026-07-22T12:04:25.173696,15.27583363,.00014588,43.0014,236.6814,274.5371,85.5314,0,U,59880,999,12246,.5037115E-4,.1124E-4,0
STARLINK-31974,2024-100A,2026-07-22T08:44:45.800736,15.27586759,.00008157,43.0017,84.8263,271.0497,89.0261,0,U,59885,999,12165,.40847293E-4,.862E-5,0
STARLINK-31975,2024-100B,2026-07-22T08:48:28.216800,15.27578501,.00016951,43.0035,84.8467,266.4653,93.6004,0,U,59886,999,12175,.46361967E-4,.1014E-4,0
STARLINK-31976,2024-100C,2026-07-21T10:07:14.570688,15.27576205,.00011113,43.0037,94.0856,276.8563,83.2162,0,U,59887,999,12156,.5726377E-5,-.104E-5,0
STARLINK-31965,2024-100D,2026-07-21T22:06:02.087136,15.27594057,.00011662,43.0009,87.5180,270.3610,89.7108,0,U,59888,999,12158,.45023981E-3,.12153E-3,0
STARLINK-31969,2024-100E,2026-07-21T17:00:12.683232,15.27579724,.00007946,43.0006,85.0480,246.2354,113.8414,0,U,59889,999,12169,.30140325E-4,.568E-5,0
STARLINK-31951,2024-100F,2026-07-21T02:33:35.806752,15.27582634,.00010358,43.0018,91.7238,263.8130,96.2603,0,U,59890,999,12146,.37017892E-4,.757E-5,0
STARLINK-31949,2024-100G,2026-07-21T01:16:05.564352,15.27583385,.00010228,42.9990,92.1729,268.8618,91.2116,0,U,59891,999,12145,-.20897538E-4,-.837E-5,0
STARLINK-31977,2024-100H,2026-07-21T00:47:52.714464,15.27585935,.00009845,42.9990,85.1114,272.0986,87.9753,0,U,59892,999,12163,.42178414E-4,.899E-5,0
STARLINK-31963,2024-100J,2026-07-21T01:36:27.140256,15.27580386,.00006694,43.0019,92.2909,267.9740,92.1035,0,U,59893,999,12155,-.11607589E-4,-.581E-5,0
STARLINK-31961,2024-100K,2026-07-21T16:55:21.008064,15.27597042,.00008083,43.0005,81.5557,277.9278,82.1482,0,U,59894,999,12173,-.15261926E-3,-.4461E-4,0
STARLINK-31964,2024-100L,2026-07-21T22:42:49.649472,15.27581916,.00014131,43.0031,86.8451,258.8040,101.2653,0,U,59895,999,12164,.26144037E-4,.457E-5,0
STARLINK-31905,2024-100M,2026-07-22T08:56:35.061792,15.27576382,.00005225,43.0029,81.4306,263.5213,96.5579,0,U,59896,999,12179,.14734383E-4,.144E-5,0
STARLINK-31928,2024-100N,2026-07-21T17:34:39.494784,15.27585012,.00016431,43.0094,88.6825,264.6270,95.4394,0,U,59897,999,12155,.35240818E-4,.708E-5,0
STARLINK-31953,2024-100P,2026-07-21T17:09:27.595872,15.27580483,.00007512,43.0019,85.0948,266.6860,93.3906,0,U,59898,999,12169,.25509329E-4,.44E-5,0
STARLINK-31942,2024-100Q,2026-07-21T01:04:59.508480,15.27582016,.00008911,43.0005,92.1200,271.7840,88.2909,0,U,59899,999,12154,.19112504E-4,.264E-5,0
