{"epoch":1784762836,"count":18316,"objects":[{"id":"59865","name":"STARLINK-31938","type":"PAYLOAD","l1":"1 59865U 24098H   26203.41326790  .00000753  00000-0  36874-4 0  9998","l2":"2 59865  43.0023 236.8650 0001211 280.8956  79.1759 15.27578655122453"},{"id":"59866","name":"STARLINK-31941","type":"PAYLOAD","l1":"1 59866U 24098J   26203.42847626  .00001093  00000-0  49223-4 0  9996","l2":"2 59866  43.0027 219.3167 0001588 283.4121  76.6554 15.27585776122656"},{"id":"59867","name":"STARLINK-31952","type":"PAYLOAD","l1":"1 59867U 24098K   26202.46459542  .00000796  00000-0  38426-4 0  9998","l2":"2 59867  43.0002 242.6482 0001346 278.1732  81.8967 15.27584244122307"},{"id":"59868","name":"STARLINK-31921","type":"PAYLOAD","l1":"1 59868U 24098L   26202.68105219 -.00001082  00000-0 -29796-4 0  9993","l2":"2 59868  43.0005 200.9285 0000786 193.8243 166.2587 15.27582852122798"},{"id":"59869","name":"STARLINK-31760","type":"PAYLOAD","l1":"1 59869U 24098M   26203.52105909  .00000570  00000-0  30229-4 0  9996","l2":"2 59869  43.0001 236.8154 0001229 279.7698  80.3015 15.27579954122464"},{"id":"59870","name":"STARLINK-31945","type":"PAYLOAD","l1":"1 59870U 24098N   26203.45472441  .00000177  00000-0  15972-4 0  9999","l2":"2 59870  43.0010 232.8511 0001171 275.8392  84.2326 15.27577720122505"},{"id":"59871","name":"STARLINK-31937","type":"PAYLOAD","l1":"1 59871U 24098P   26203.49763705 -.00003453  00000-0 -11611-3 0  9997","l2":"2 59871  43.0000 229.7187 0001407 266.0498  94.0192 15.27552187122544"},{"id":"59873","name":"STARLINK-31940","type":"PAYLOAD","l1":"1 59873U 24098R   26203.44749878  .00000616  00000-0  31923-4 0  9994","l2":"2 59873  43.0028 229.3386 0001574 284.4657  75.6021 15.27578558122545"},{"id":"59874","name":"STARLINK-31933","type":"PAYLOAD","l1":"1 59874U 24098S   26203.42997336  .00000766  00000-0  37358-4 0  9991","l2":"2 59874  43.0002 236.9957 0001640 273.2832  86.7832 15.27579335122458"},{"id":"59875","name":"STARLINK-31936","type":"PAYLOAD","l1":"1 59875U 24098T   26203.43028852  .00000537  00000-0  29021-4 0  9995","l2":"2 59875  43.0003 204.7198 0001280 270.9899  89.0806 15.27590483122811"},{"id":"59876","name":"STARLINK-31935","type":"PAYLOAD","l1":"1 59876U 24098U   26203.45181858  .00000498  00000-0  27611-4 0  9993","l2":"2 59876  42.9997 237.1550 0001259 276.1896  83.8812 15.27578993122456"},{"id":"59877","name":"STARLINK-31934","type":"PAYLOAD","l1":"1 59877U 24098V   26203.48042108  .00000732  00000-0  36142-4 0  9991","l2":"2 59877  43.0025 233.0512 0001787 279.6592  80.4058 15.27581863122502"},{"id":"59878","name":"STARLINK-31943","type":"PAYLOAD","l1":"1 59878U 24098W   26203.40187604  .00109969  00000-0  17799-2 0  9992","l2":"2 59878  42.9943 227.2002 0019739  76.4572 283.8486 15.51510601121913"},{"id":"59879","name":"STARLINK-31926","type":"PAYLOAD","l1":"1 59879U 24098X   26203.45707514  .00005549  00000-0  21102-3 0  9999","l2":"2 59879  43.0024 226.3959 0001533 272.5177  87.5499 15.27579261122576"},{"id":"59880","name":"STARLINK-31919","type":"PAYLOAD","l1":"1 59880U 24098Y   26203.50306914  .00001124  00000-0  50371-4 0  9992","l2":"2 59880  43.0014 236.6814 0001459 274.5371  85.5314 15.27583363122466"},{"id":"59885","name":"STARLINK-31974","type":"PAYLOAD","l1":"1 59885U 24100A   26203.36441899  .00000862  00000-0  40847-4 0  9992","l2":"2 59885  43.0017  84.8263 0000816 271.0497  89.0261 15.27586759121654"},{"id":"59886","name":"STARLINK-31975","type":"PAYLOAD","l1":"1 59886U 24100B   26203.36699325  .00001014  00000-0  46362-4 0  9990","l2":"2 59886  43.0035  84.8467 0001695 266.4653  93.6004 15.27578501121752"},{"id":"59887","name":"STARLINK-31976","type":"PAYLOAD","l1":"1 59887U 24100C   26202.42169642 -.00000104  00000-0  57264-5 0  9995","l2":"2 59887  43.0037  94.0856 0001111 276.8563  83.2162 15.27576205121566"},{"id":"59888","name":"STARLINK-31965","type":"PAYLOAD","l1":"1 59888U 24100D   26202.92085749  .00012153  00000-0  45024-3 0  9991","l2":"2 59888  43.0009  87.5180 0001166 270.3610  89.7108 15.27594057121583"},{"id":"59889","name":"STARLINK-31969","type":"PAYLOAD","l1":"1 59889U 24100E   26202.70848013  .00000568  00000-0  30140-4 0  9990","l2":"2 59889  43.0006  85.0480 0000795 246.2354 113.8414 15.27579724121696"},{"id":"59890","name":"STARLINK-31951","type":"PAYLOAD","l1":"1 59890U 24100F   26202.10666443  .00000757  00000-0  37018-4 0  9992","l2":"2 59890  43.0018  91.7238 0001036 263.8130  96.2603 15.27582634121465"},{"id":"59891","name":"STARLINK-31949","type":"PAYLOAD","l1":"1 59891U 24100G   26202.05284218 -.00000837  00000-0 -20898-4 0  9992","l2":"2 59891  42.9990  92.1729 0001023 268.8618  91.2116 15.27583385121452"},{"id":"59892","name":"STARLINK-31977","type":"PAYLOAD","l1":"1 59892U 24100H   26202.03324901  .00000899  00000-0  42178-4 0  9996","l2":"2 59892  42.9990  85.1114 0000985 272.0986  87.9753 15.27585935121636"},{"id":"59893","name":"STARLINK-31963","type":"PAYLOAD","l1":"1 59893U 24100J   26202.06698079 -.00000581  00000-0 -11608-4 0  9994","l2":"2 59893  43.0019  92.2909 0000669 267.9740  92.1035 15.27580386121559"},{"id":"59894","name":"STARLINK-31961","type":"PAYLOAD","l1":"1 59894U 24100K   26202.70510426 -.00004461  00000-0 -15262-3 0  9995","l2":"2 59894  43.0005  81.5557 0000808 277.9278  82.1482 15.27597042121739"},{"id":"59895","name":"STARLINK-31964","type":"PAYLOAD","l1":"1 59895U 24100L   26202.94640798  .00000457  00000-0  26144-4 0  9999","l2":"2 59895  43.0031  86.8451 0001413 258.8040 101.2653 15.27581916121644"},{"id":"59896","name":"STARLINK-31905","type":"PAYLOAD","l1":"1 59896U 24100M   26203.37262803  .00000144  00000-0  14734-4 0  9990","l2":"2 59896  43.0029  81.4306 0000522 263.5213  96.5579 15.27576382121797"},{"id":"59897","name":"STARLINK-31928","type":"PAYLOAD","l1":"1 59897U 24100N   26202.73240156  .00000708  00000-0  35241-4 0  9999","l2":"2 59897  43.0094  88.6825 0001643 264.6270  95.4394 15.27585012121552"},{"id":"59898","name":"STARLINK-31953","type":"PAYLOAD","l1":"1 59898U 24100P   26202.71490273  .00000440  00000-0  25509-4 0  9994","l2":"2 59898  43.0019  85.0948 0000751 266.6860  93.3906 15.27580483121691"},{"id":"59899","name":"STARLINK-31942","type":"PAYLOAD","l1":"1 59899U 24100Q   26202.04513320  .00000264  00000-0  19113-4 0  9998","l2":"2 59899  43.0005  92.1200 0000891 271.7840  88.2909 15.27582016121541"}]}